{
  "type": "FeatureCollection",
  "features": [
    {
      "type": "Feature",
      "properties": {
        "norad_id": 30403,
        "name": "FENGYUN 1C DEB",
        "group": "fengyun-1c-debris",
        "lat": -65.4906115215811,
        "lon": -145.74920360331805,
        "alt_km": 880.4268750247838,
        "timestamp": "2025-12-02T13:52:17.538374+00:00",
        "meta_object_name": "FENGYUN 1C DEB",
        "meta_object_id": "1999-025ADS",
        "meta_epoch": "2025-12-02T04:16:03.679104",
        "meta_mean_motion": 14.21392665,
        "meta_eccentricity": 0.00754654,
        "meta_inclination": 99.0608,
        "meta_ra_of_asc_node": 54.3277,
        "meta_arg_of_pericenter": 53.8438,
        "meta_mean_anomaly": 306.969,
        "meta_ephemeris_type": 0,
        "meta_classification_type": "U",
        "meta_norad_cat_id": 30403,
        "meta_element_set_no": 999,
        "meta_rev_at_epoch": 96656,
        "meta_bstar": 0.0021385101,
        "meta_mean_motion_dot": 4.764e-05,
        "meta_mean_motion_ddot": 0,
        "tle_line1": "1 30403U 99025ADS 25336.17782036  .00004764  00000+0  21385-2 0  9999",
        "tle_line2": "2 30403  99.0608  54.3277 0075465  53.8438 306.9690 14.21392665966564"
      },
      "geometry": {
        "type": "Point",
        "coordinates": [
          -145.74920360331805,
          -65.4906115215811
        ]
      }
    },
    {
      "type": "Feature",
      "properties": {
        "norad_id": 30404,
        "name": "FENGYUN 1C DEB",
        "group": "fengyun-1c-debris",
        "lat": -75.65499306589736,
        "lon": -153.97140031679342,
        "alt_km": 1169.1241005503116,
        "timestamp": "2025-12-02T13:52:17.538384+00:00",
        "meta_object_name": "FENGYUN 1C DEB",
        "meta_object_id": "1999-025ADT",
        "meta_epoch": "2025-11-30T17:24:43.426368",
        "meta_mean_motion": 13.34313011,
        "meta_eccentricity": 0.03760074,
        "meta_inclination": 99.8332,
        "meta_ra_of_asc_node": 66.9455,
        "meta_arg_of_pericenter": 165.4409,
        "meta_mean_anomaly": 195.791,
        "meta_ephemeris_type": 0,
        "meta_classification_type": "U",
        "meta_norad_cat_id": 30404,
        "meta_element_set_no": 999,
        "meta_rev_at_epoch": 57876,
        "meta_bstar": 0.0014039979,
        "meta_mean_motion_dot": 1.003e-05,
        "meta_mean_motion_ddot": 0,
        "tle_line1": "1 30404U 99025ADT 25334.72550262  .00001003  00000+0  14040-2 0  9996",
        "tle_line2": "2 30404  99.8332  66.9455 0376007 165.4409 195.7910 13.34313011578769"
      },
      "geometry": {
        "type": "Point",
        "coordinates": [
          -153.97140031679342,
          -75.65499306589736
        ]
      }
    },
    {
      "type": "Feature",
      "properties": {
        "norad_id": 30405,
        "name": "FENGYUN 1C DEB",
        "group": "fengyun-1c-debris",
        "lat": 24.70660501584747,
        "lon": -105.43646254416367,
        "alt_km": 762.2663779217964,
        "timestamp": "2025-12-02T13:52:17.538394+00:00",
        "meta_object_name": "FENGYUN 1C DEB",
        "meta_object_id": "1999-025ADU",
        "meta_epoch": "2025-12-02T01:57:34.279200",
        "meta_mean_motion": 14.28757262,
        "meta_eccentricity": 0.00516482,
        "meta_inclination": 98.7948,
        "meta_ra_of_asc_node": 69.9787,
        "meta_arg_of_pericenter": 183.9789,
        "meta_mean_anomaly": 299.706,
        "meta_ephemeris_type": 0,
        "meta_classification_type": "U",
        "meta_norad_cat_id": 30405,
        "meta_element_set_no": 999,
        "meta_rev_at_epoch": 97243,
        "meta_bstar": 0.0021573373,
        "meta_mean_motion_dot": 5.468e-05,
        "meta_mean_motion_ddot": 0,
        "tle_line1": "1 30405U 99025ADU 25336.08164675  .00005468  00000+0  21573-2 0  9995",
        "tle_line2": "2 30405  98.7948  69.9787 0051648 183.9789 299.7060 14.28757262972436"
      },
      "geometry": {
        "type": "Point",
        "coordinates": [
          -105.43646254416367,
          24.70660501584747
        ]
      }
    },
    {
      "type": "Feature",
      "properties": {
        "norad_id": 30406,
        "name": "FENGYUN 1C DEB",
        "group": "fengyun-1c-debris",
        "lat": 34.07475989355791,
        "lon": 54.337388870442425,
        "alt_km": 1134.5332581609737,
        "timestamp": "2025-12-02T13:52:17.538404+00:00",
        "meta_object_name": "FENGYUN 1C DEB",
        "meta_object_id": "1999-025ADV",
        "meta_epoch": "2025-12-02T05:04:30.919008",
        "meta_mean_motion": 13.59145141,
        "meta_eccentricity": 0.02827909,
        "meta_inclination": 98.6203,
        "meta_ra_of_asc_node": 228.1254,
        "meta_arg_of_pericenter": 27.0682,
        "meta_mean_anomaly": 123.1107,
        "meta_ephemeris_type": 0,
        "meta_classification_type": "U",
        "meta_norad_cat_id": 30406,
        "meta_element_set_no": 999,
        "meta_rev_at_epoch": 93023,
        "meta_bstar": 0.0029013263,
        "meta_mean_motion_dot": 2.74e-05,
        "meta_mean_motion_ddot": 0,
        "tle_line1": "1 30406U 99025ADV 25336.21146897  .00002740  00000+0  29013-2 0  9994",
        "tle_line2": "2 30406  98.6203 228.1254 0282790  27.0682 123.1107 13.59145141930236"
      },
      "geometry": {
        "type": "Point",
        "coordinates": [
          54.337388870442425,
          34.07475989355791
        ]
      }
    },
    {
      "type": "Feature",
      "properties": {
        "norad_id": 30409,
        "name": "FENGYUN 1C DEB",
        "group": "fengyun-1c-debris",
        "lat": 57.35350720772195,
        "lon": -48.80452297919671,
        "alt_km": 763.5770106308073,
        "timestamp": "2025-12-02T13:52:17.538414+00:00",
        "meta_object_name": "FENGYUN 1C DEB",
        "meta_object_id": "1999-025ADY",
        "meta_epoch": "2025-12-01T17:54:29.723040",
        "meta_mean_motion": 14.0367738,
        "meta_eccentricity": 0.01685532,
        "meta_inclination": 98.4719,
        "meta_ra_of_asc_node": 323.8722,
        "meta_arg_of_pericenter": 36.5498,
        "meta_mean_anomaly": 140.1239,
        "meta_ephemeris_type": 0,
        "meta_classification_type": "U",
        "meta_norad_cat_id": 30409,
        "meta_element_set_no": 999,
        "meta_rev_at_epoch": 96275,
        "meta_bstar": 0.00079250195,
        "meta_mean_motion_dot": 1.374e-05,
        "meta_mean_motion_ddot": 0,
        "tle_line1": "1 30409U 99025ADY 25335.74617735  .00001374  00000+0  79250-3 0  9999",
        "tle_line2": "2 30409  98.4719 323.8722 0168553  36.5498 140.1239 14.03677380962754"
      },
      "geometry": {
        "type": "Point",
        "coordinates": [
          -48.80452297919671,
          57.35350720772195
        ]
      }
    },
    {
      "type": "Feature",
      "properties": {
        "norad_id": 30411,
        "name": "FENGYUN 1C DEB",
        "group": "fengyun-1c-debris",
        "lat": 38.42216236821671,
        "lon": 74.57080459416068,
        "alt_km": 777.1723772938713,
        "timestamp": "2025-12-02T13:52:17.538424+00:00",
        "meta_object_name": "FENGYUN 1C DEB",
        "meta_object_id": "1999-025AEA",
        "meta_epoch": "2025-11-28T05:08:20.107968",
        "meta_mean_motion": 14.07531428,
        "meta_eccentricity": 0.01214775,
        "meta_inclination": 98.5797,
        "meta_ra_of_asc_node": 243.5473,
        "meta_arg_of_pericenter": 148.0694,
        "meta_mean_anomaly": 212.7913,
        "meta_ephemeris_type": 0,
        "meta_classification_type": "U",
        "meta_norad_cat_id": 30411,
        "meta_element_set_no": 999,
        "meta_rev_at_epoch": 95779,
        "meta_bstar": 0.0014902318,
        "meta_mean_motion_dot": 2.647e-05,
        "meta_mean_motion_ddot": 0,
        "tle_line1": "1 30411U 99025AEA 25332.21412162  .00002647  00000+0  14902-2 0  9994",
        "tle_line2": "2 30411  98.5797 243.5473 0121477 148.0694 212.7913 14.07531428957795"
      },
      "geometry": {
        "type": "Point",
        "coordinates": [
          74.57080459416068,
          38.42216236821671
        ]
      }
    },
    {
      "type": "Feature",
      "properties": {
        "norad_id": 30413,
        "name": "FENGYUN 1C DEB",
        "group": "fengyun-1c-debris",
        "lat": -16.083891983832522,
        "lon": -150.92617828648878,
        "alt_km": 794.2236124616484,
        "timestamp": "2025-12-02T13:52:17.538434+00:00",
        "meta_object_name": "FENGYUN 1C DEB",
        "meta_object_id": "1999-025AEC",
        "meta_epoch": "2025-12-02T02:55:36.325344",
        "meta_mean_motion": 14.32331053,
        "meta_eccentricity": 0.00465424,
        "meta_inclination": 102.0625,
        "meta_ra_of_asc_node": 204.907,
        "meta_arg_of_pericenter": 244.8113,
        "meta_mean_anomaly": 268.0168,
        "meta_ephemeris_type": 0,
        "meta_classification_type": "U",
        "meta_norad_cat_id": 30413,
        "meta_element_set_no": 999,
        "meta_rev_at_epoch": 96987,
        "meta_bstar": 0.0026641064,
        "meta_mean_motion_dot": 7.218e-05,
        "meta_mean_motion_ddot": 0,
        "tle_line1": "1 30413U 99025AEC 25336.12194821  .00007218  00000+0  26641-2 0  9991",
        "tle_line2": "2 30413 102.0625 204.9070 0046542 244.8113 268.0168 14.32331053969870"
      },
      "geometry": {
        "type": "Point",
        "coordinates": [
          -150.92617828648878,
          -16.083891983832522
        ]
      }
    }
  ]
}